{
  "norad_id": 51871,
  "name": "STARLINK-3567",
  "history": [
    {
      "epoch": "2026-03-28T19:46:37.726464Z",
      "apogee_km": 540.577615008925,
      "perigee_km": 538.912757481984,
      "latitude_deg": 4.04340398971814e-07,
      "longitude_deg": 160.32825226886146,
      "height_km": 540.6252402068884,
      "semi_major_axis_km": 6917.882186245454,
      "eccentricity": 0.00012033,
      "inclination_deg": 53.2178,
      "raan_deg": 283.2244,
      "arg_perigee_deg": 88.9048,
      "mean_anomaly_deg": 271.2082,
      "mean_motion_rev_day": 15.08839412
    },
    {
      "epoch": "2026-03-28T22:57:23.693472Z",
      "apogee_km": 540.6434912659734,
      "perigee_km": 538.8240912478741,
      "latitude_deg": -2.2149581162304517e-05,
      "longitude_deg": 111.91043148194524,
      "height_km": 540.7103812323181,
      "semi_major_axis_km": 6917.870791256923,
      "eccentricity": 0.0001315,
      "inclination_deg": 53.2194,
      "raan_deg": 282.6287,
      "arg_perigee_deg": 95.083,
      "mean_anomaly_deg": 265.0312,
      "mean_motion_rev_day": 15.0884314
    },
    {
      "epoch": "2026-03-30T05:09:42.702048Z",
      "apogee_km": 540.4299576043295,
      "perigee_km": 538.9481592626134,
      "latitude_deg": 3.6215855052987424e-05,
      "longitude_deg": 11.941886440014446,
      "height_km": 540.534132669816,
      "semi_major_axis_km": 6917.826058433471,
      "eccentricity": 0.0001071,
      "inclination_deg": 53.2164,
      "raan_deg": 276.9798,
      "arg_perigee_deg": 86.0586,
      "mean_anomaly_deg": 274.0529,
      "mean_motion_rev_day": 15.08857775
    },
    {
      "epoch": "2026-03-30T05:09:42.702912Z",
      "apogee_km": 540.4303034956329,
      "perigee_km": 538.947813371311,
      "latitude_deg": 3.1610348148474334e-05,
      "longitude_deg": 11.941879405740684,
      "height_km": 540.5341088947305,
      "semi_major_axis_km": 6917.826058433471,
      "eccentricity": 0.00010715,
      "inclination_deg": 53.2164,
      "raan_deg": 276.9798,
      "arg_perigee_deg": 86.0586,
      "mean_anomaly_deg": 274.0529,
      "mean_motion_rev_day": 15.08857775
    },
    {
      "epoch": "2026-03-30T22:38:56.791104Z",
      "apogee_km": 540.6136269727103,
      "perigee_km": 538.8008750651734,
      "latitude_deg": -2.050404391463355e-05,
      "longitude_deg": 105.64426499489035,
      "height_km": 540.615317060809,
      "semi_major_axis_km": 6917.844251018942,
      "eccentricity": 0.00013102,
      "inclination_deg": 53.2167,
      "raan_deg": 273.7091,
      "arg_perigee_deg": 90.7812,
      "mean_anomaly_deg": 269.333,
      "mean_motion_rev_day": 15.08851823
    },
    {
      "epoch": "2026-03-31T20:54:20.484288Z",
      "apogee_km": 540.7437149352536,
      "perigee_km": 538.6904958367741,
      "latitude_deg": 2.4545270392457983e-05,
      "longitude_deg": 126.71793285880281,
      "height_km": 540.7489898459968,
      "semi_major_axis_km": 6917.8541053860135,
      "eccentricity": 0.0001484,
      "inclination_deg": 53.2159,
      "raan_deg": 269.5455,
      "arg_perigee_deg": 97.6405,
      "mean_anomaly_deg": 262.4756,
      "mean_motion_rev_day": 15.08848599
    },
    {
      "epoch": "2026-04-01T11:12:48.912192Z",
      "apogee_km": 540.6950880912482,
      "perigee_km": 538.7857539230499,
      "latitude_deg": 1.1146918738323959e-05,
      "longitude_deg": -91.16463038219781,
      "height_km": 540.5699583771767,
      "semi_major_axis_km": 6917.877421007149,
      "eccentricity": 0.000138,
      "inclination_deg": 53.2166,
      "raan_deg": 266.869,
      "arg_perigee_deg": 86.0321,
      "mean_anomaly_deg": 274.0829,
      "mean_motion_rev_day": 15.08840971
    },
    {
      "epoch": "2026-04-02T17:25:08.152320Z",
      "apogee_km": 540.585231002442,
      "perigee_km": 538.8640670241675,
      "latitude_deg": 4.961605261166499e-05,
      "longitude_deg": 168.86544276612847,
      "height_km": 540.5668636164191,
      "semi_major_axis_km": 6917.8616490133045,
      "eccentricity": 0.0001244,
      "inclination_deg": 53.2165,
      "raan_deg": 261.2197,
      "arg_perigee_deg": 86.4321,
      "mean_anomaly_deg": 273.6814,
      "mean_motion_rev_day": 15.08846131
    },
    {
      "epoch": "2026-04-02T17:25:08.153184Z",
      "apogee_km": 540.5854385382918,
      "perigee_km": 538.8638594883187,
      "latitude_deg": 4.685153559639022e-05,
      "longitude_deg": 168.86543710072954,
      "height_km": 540.5668507011914,
      "semi_major_axis_km": 6917.8616490133045,
      "eccentricity": 0.00012443,
      "inclination_deg": 53.2165,
      "raan_deg": 261.2197,
      "arg_perigee_deg": 86.4321,
      "mean_anomaly_deg": 273.6814,
      "mean_motion_rev_day": 15.08846131
    },
    {
      "epoch": "2026-04-03T17:15:55.685664Z",
      "apogee_km": 540.6114950334149,
      "perigee_km": 538.8972415523522,
      "latitude_deg": 1.0992659863205742e-05,
      "longitude_deg": 165.72631610846173,
      "height_km": 540.700635689394,
      "semi_major_axis_km": 6917.891368292883,
      "eccentricity": 0.0001239,
      "inclination_deg": 53.2165,
      "raan_deg": 256.758,
      "arg_perigee_deg": 93.3771,
      "mean_anomaly_deg": 266.7363,
      "mean_motion_rev_day": 15.08836408
    },
    {
      "epoch": "2026-04-04T04:23:37.372416Z",
      "apogee_km": 540.6016224957593,
      "perigee_km": 538.8729840648557,
      "latitude_deg": 1.4408525558467058e-05,
      "longitude_deg": -3.7358971836865305,
      "height_km": 540.7046229899299,
      "semi_major_axis_km": 6917.874303280307,
      "eccentricity": 0.00012494,
      "inclination_deg": 53.2167,
      "raan_deg": 254.6765,
      "arg_perigee_deg": 94.7473,
      "mean_anomaly_deg": 265.3662,
      "mean_motion_rev_day": 15.08841991
    }
  ]
}